{"fetched_at":"2026-07-18T06:28:28.741Z","source":"https://celestrak.org/NORAD/elements/gp.php?NAME=SPACEMOBILE&FORMAT=JSON","constellation":"ast-spacemobile","records":[{"OBJECT_NAME":"SPACEMOBILE-003","OBJECT_ID":"2024-163A","EPOCH":"2026-07-17T21:47:25.678176","CLASSIFICATION_TYPE":"U","MEAN_MOTION":15.20713181,"ECCENTRICITY":0.00044948,"INCLINATION":52.9669,"RA_OF_ASC_NODE":168.1687,"ARG_OF_PERICENTER":202.4394,"MEAN_ANOMALY":157.6405,"EPHEMERIS_TYPE":0,"NORAD_CAT_ID":61045,"ELEMENT_SET_NO":999,"REV_AT_EPOCH":10244,"BSTAR":0.000071268822,"MEAN_MOTION_DOT":0.00001261,"MEAN_MOTION_DDOT":0},{"OBJECT_NAME":"SPACEMOBILE-005","OBJECT_ID":"2024-163B","EPOCH":"2026-07-17T15:05:00.591648","CLASSIFICATION_TYPE":"U","MEAN_MOTION":15.20721282,"ECCENTRICITY":0.00085847,"INCLINATION":52.9759,"RA_OF_ASC_NODE":169.4054,"ARG_OF_PERICENTER":203.1415,"MEAN_ANOMALY":156.9194,"EPHEMERIS_TYPE":0,"NORAD_CAT_ID":61046,"ELEMENT_SET_NO":999,"REV_AT_EPOCH":10239,"BSTAR":0.000087600417,"MEAN_MOTION_DOT":0.00001625,"MEAN_MOTION_DDOT":0},{"OBJECT_NAME":"SPACEMOBILE-001","OBJECT_ID":"2024-163C","EPOCH":"2026-07-17T00:50:50.309664","CLASSIFICATION_TYPE":"U","MEAN_MOTION":15.2074346,"ECCENTRICITY":0.00070937,"INCLINATION":52.9725,"RA_OF_ASC_NODE":171.8417,"ARG_OF_PERICENTER":199.2363,"MEAN_ANOMALY":160.8365,"EPHEMERIS_TYPE":0,"NORAD_CAT_ID":61047,"ELEMENT_SET_NO":999,"REV_AT_EPOCH":10230,"BSTAR":0.000021220399,"MEAN_MOTION_DOT":0.00000145,"MEAN_MOTION_DDOT":0},{"OBJECT_NAME":"SPACEMOBILE-002","OBJECT_ID":"2024-163D","EPOCH":"2026-07-17T22:32:32.575488","CLASSIFICATION_TYPE":"U","MEAN_MOTION":15.20685005,"ECCENTRICITY":0.00055417,"INCLINATION":52.9786,"RA_OF_ASC_NODE":167.7269,"ARG_OF_PERICENTER":200.5884,"MEAN_ANOMALY":159.4888,"EPHEMERIS_TYPE":0,"NORAD_CAT_ID":61048,"ELEMENT_SET_NO":999,"REV_AT_EPOCH":10244,"BSTAR":-0.00054766943,"MEAN_MOTION_DOT":-0.00012497,"MEAN_MOTION_DDOT":0},{"OBJECT_NAME":"SPACEMOBILE-004","OBJECT_ID":"2024-163E","EPOCH":"2026-07-16T08:16:06.262752","CLASSIFICATION_TYPE":"U","MEAN_MOTION":15.20779499,"ECCENTRICITY":0.0005984,"INCLINATION":52.9692,"RA_OF_ASC_NODE":174.8353,"ARG_OF_PERICENTER":230.9141,"MEAN_ANOMALY":129.1322,"EPHEMERIS_TYPE":0,"NORAD_CAT_ID":61049,"ELEMENT_SET_NO":999,"REV_AT_EPOCH":10220,"BSTAR":0.00056003078,"MEAN_MOTION_DOT":0.00012194,"MEAN_MOTION_DDOT":0},{"OBJECT_NAME":"SPACEMOBILE-006","OBJECT_ID":"2025-309A","EPOCH":"2026-07-17T09:10:58.240128","CLASSIFICATION_TYPE":"U","MEAN_MOTION":15.18659721,"ECCENTRICITY":0.0009874,"INCLINATION":52.9933,"RA_OF_ASC_NODE":193.313,"ARG_OF_PERICENTER":222.5585,"MEAN_ANOMALY":137.4644,"EPHEMERIS_TYPE":0,"NORAD_CAT_ID":67232,"ELEMENT_SET_NO":999,"REV_AT_EPOCH":3118,"BSTAR":0.000070391,"MEAN_MOTION_DOT":0.00001156,"MEAN_MOTION_DDOT":0},{"OBJECT_NAME":"SPACEMOBILE-008","OBJECT_ID":"2026-139A","EPOCH":"2026-07-17T19:05:27.280032","CLASSIFICATION_TYPE":"U","MEAN_MOTION":15.12804081,"ECCENTRICITY":0.00051516,"INCLINATION":52.995,"RA_OF_ASC_NODE":123.6019,"ARG_OF_PERICENTER":62.615,"MEAN_ANOMALY":297.5364,"EPHEMERIS_TYPE":0,"NORAD_CAT_ID":69589,"ELEMENT_SET_NO":999,"REV_AT_EPOCH":461,"BSTAR":0.000034486896,"MEAN_MOTION_DOT":0.00000311,"MEAN_MOTION_DDOT":0},{"OBJECT_NAME":"SPACEMOBILE-009","OBJECT_ID":"2026-139B","EPOCH":"2026-07-17T22:18:49.574016","CLASSIFICATION_TYPE":"U","MEAN_MOTION":15.12697715,"ECCENTRICITY":0.00054087,"INCLINATION":52.9941,"RA_OF_ASC_NODE":123.0096,"ARG_OF_PERICENTER":59.0065,"MEAN_ANOMALY":301.1457,"EPHEMERIS_TYPE":0,"NORAD_CAT_ID":69590,"ELEMENT_SET_NO":999,"REV_AT_EPOCH":463,"BSTAR":0.000036570278,"MEAN_MOTION_DOT":0.00000346,"MEAN_MOTION_DDOT":0},{"OBJECT_NAME":"SPACEMOBILE-010","OBJECT_ID":"2026-139C","EPOCH":"2026-07-17T22:23:44.249856","CLASSIFICATION_TYPE":"U","MEAN_MOTION":15.12535224,"ECCENTRICITY":0.00053861,"INCLINATION":52.9947,"RA_OF_ASC_NODE":123.0339,"ARG_OF_PERICENTER":51.6637,"MEAN_ANOMALY":308.4837,"EPHEMERIS_TYPE":0,"NORAD_CAT_ID":69591,"ELEMENT_SET_NO":999,"REV_AT_EPOCH":464,"BSTAR":0.000081266822,"MEAN_MOTION_DOT":0.00001132,"MEAN_MOTION_DDOT":0}]}
